NORAD_CAT_ID,OBJECT_NAME,OBJECT_TYPE,EPOCH,MEAN_MOTION,ECCENTRICITY,INCLINATION,RA_OF_ASC_NODE,ARG_OF_PERICENTER,MEAN_ANOMALY,BSTAR,MEAN_MOTION_DOT,MEAN_MOTION_DDOT,TLE_LINE0,TLE_LINE1,TLE_LINE2,SEMIMAJOR_AXIS,PERIOD,APOGEE,PERIGEE,DECAYED
53249.0,STARLINK-4128,PAYLOAD,2024-02-14 19:58:32,15.08840414,0.0001246,53.2196,338.3259,116.0327,244.0794,2.5386e-05,1.16e-06,0.0,0 STARLINK-4128,1 53249U 22086H   24045.83231847  .00000116  00000-0  25386-4 0  9998,2 53249  53.2196 338.3259 0001246 116.0327 244.0794 15.08840414 87074,6917.879,95.438,540.606,538.882,0.0
53249.0,STARLINK-4128,PAYLOAD,2024-02-15 02:20:05,15.08830526,0.0001004,53.2177,337.1393,72.6875,287.4227,-1.8012e-05,-5.74e-06,0.0,0 STARLINK-4128,1 53249U 22086H   24046.09728891 -.00000574  00000-0 -18012-4 0  9995,2 53249  53.2177 337.1393 0001004  72.6875 287.4227 15.08830526 87116,6917.909,95.438,540.469,539.08,0.0
53249.0,STARLINK-4128,PAYLOAD,2024-02-15 05:30:51,15.08832911,0.0001077,53.2189,336.5444,79.6514,280.46,5.8195e-07,-2.79e-06,0.0,0 STARLINK-4128,1 53249U 22086H   24046.22976621 -.00000279  00000-0  58195-6 0  9995,2 53249  53.2189 336.5444 0001077  79.6514 280.4600 15.08832911 87338,6917.902,95.438,540.512,539.022,0.0
53249.0,STARLINK-4128,PAYLOAD,2024-02-15 18:13:58,15.08817009,0.0001091,53.2191,334.1669,88.2895,271.8222,-0.0001791,-3.135e-05,0.0,0 STARLINK-4128,1 53249U 22086H   24046.75970575 -.00003135  00000-0 -17910-3 0  9997,2 53249  53.2191 334.1669 0001091  88.2895 271.8222 15.08817009 87210,6917.951,95.439,540.57,539.061,0.0
53249.0,STARLINK-4128,PAYLOAD,2024-02-15 23:00:07,15.0883033,0.0001247,53.2186,333.2751,95.8174,264.2961,-0.00026946,-4.573e-05,0.0,0 STARLINK-4128,1 53249U 22086H   24046.95842158 -.00004573  00000-0 -26946-3 0  9990,2 53249  53.2186 333.2751 0001247  95.8174 264.2961 15.08830330 87446,6917.91,95.438,540.638,538.912,0.0
53249.0,STARLINK-4128,PAYLOAD,2024-02-16 03:46:16,15.08834882,0.0001383,53.219,332.3826,101.1138,259.001,-0.00021397,-3.691e-05,0.0,0 STARLINK-4128,1 53249U 22086H   24047.15713769 -.00003691  00000-0 -21397-3 0  9993,2 53249  53.2190 332.3826 0001383 101.1138 259.0010 15.08834882 87270,6917.896,95.438,540.718,538.804,0.0
53249.0,STARLINK-4128,PAYLOAD,2024-02-16 11:43:11,15.08844374,0.0001327,53.2196,330.8967,92.5365,267.578,-0.00013082,-2.37e-05,0.0,0 STARLINK-4128,1 53249U 22086H   24047.48832968 -.00002370  00000-0 -13082-3 0  9997,2 53249  53.2196 330.8967 0001327  92.5365 267.5780 15.08844374 87329,6917.867,95.437,540.65,538.814,0.0
53249.0,STARLINK-4128,PAYLOAD,2024-02-17 02:01:40,15.08837327,0.000129,53.2183,328.2188,79.7307,280.383,0.00033235,5.005e-05,0.0,0 STARLINK-4128,1 53249U 22086H   24048.08449695  .00005005  00000-0  33235-3 0  9993,2 53249  53.2183 328.2188 0001290  79.7307 280.3830 15.08837327 87412,6917.889,95.438,540.646,538.861,0.0
53249.0,STARLINK-4128,PAYLOAD,2024-02-17 11:33:59,15.08840402,0.000117,53.2177,326.4359,93.3353,266.7773,0.00026243,3.891e-05,0.0,0 STARLINK-4128,1 53249U 22086H   24048.48193648  .00003891  00000-0  26243-3 0  9993,2 53249  53.2177 326.4359 0001170  93.3353 266.7773 15.08840402 87675,6917.879,95.438,540.554,538.935,0.0
53249.0,STARLINK-4128,PAYLOAD,2024-02-17 22:41:41,15.08830987,9.87e-05,53.2177,324.3492,92.38,267.7306,0.00043417,6.627e-05,0.0,0 STARLINK-4128,1 53249U 22086H   24048.94562344  .00006627  00000-0  43417-3 0  9999,2 53249  53.2177 324.3492 0000987  92.3800 267.7306 15.08830987 87749,6917.908,95.438,540.456,539.09,0.0
53249.0,STARLINK-4128,PAYLOAD,2024-02-18 03:27:50,15.08853897,0.0001412,53.2182,323.4602,91.7223,268.393,0.00035836,5.422e-05,0.0,0 STARLINK-4128,1 53249U 22086H   24049.14433265  .00005422  00000-0  35836-3 0  9999,2 53249  53.2182 323.4602 0001412  91.7223 268.3930 15.08853897 87570,6917.838,95.437,540.68,538.726,0.0
53249.0,STARLINK-4128,PAYLOAD,2024-02-18 11:24:46,15.08844148,0.0001445,53.2192,321.9718,85.3894,274.7263,0.0001432,1.992e-05,0.0,0 STARLINK-4128,1 53249U 22086H   24049.47553721  .00001992  00000-0  14320-3 0  9998,2 53249  53.2192 321.9718 0001445  85.3894 274.7263 15.08844148 87626,6917.868,95.437,540.732,538.733,0.0
53249.0,STARLINK-4128,PAYLOAD,2024-02-18 22:32:28,15.08846685,0.0001722,53.2185,319.8916,92.2504,267.8685,0.00012635,1.724e-05,0.0,0 STARLINK-4128,1 53249U 22086H   24049.93921436  .00001724  00000-0  12635-3 0  9991,2 53249  53.2185 319.8916 0001722  92.2504 267.8685 15.08846685 87895,6917.86,95.437,540.916,538.534,0.0
53249.0,STARLINK-4128,PAYLOAD,2024-02-19 11:15:33,15.08834244,0.0001346,53.2196,317.5097,98.3008,261.8137,-9.4824e-05,-1.796e-05,0.0,0 STARLINK-4128,1 53249U 22086H   24050.46913813 -.00001796  00000-0 -94824-4 0  9993,2 53249  53.2196 317.5097 0001346  98.3008 261.8137 15.08834244 87771,6917.898,95.438,540.694,538.832,0.0
53249.0,STARLINK-4128,PAYLOAD,2024-02-19 22:23:15,15.08829831,0.0001735,53.2174,315.4302,96.3382,263.7807,-9.4151e-05,-1.786e-05,0.0,0 STARLINK-4128,1 53249U 22086H   24050.93282350 -.00001786  00000-0 -94151-4 0  9992,2 53249  53.2174 315.4302 0001735  96.3382 263.7807 15.08829831 88040,6917.911,95.438,540.977,538.576,0.0
53249.0,STARLINK-4128,PAYLOAD,2024-02-20 11:06:21,15.08839816,0.0001607,53.2193,313.0524,93.636,266.4815,2.3909e-05,9.3e-07,0.0,0 STARLINK-4128,1 53249U 22086H   24051.46274318  .00000093  00000-0  23909-4 0  9997,2 53249  53.2193 313.0524 0001607  93.6360 266.4815 15.08839816 88127,6917.881,95.438,540.858,538.634,0.0
53249.0,STARLINK-4128,PAYLOAD,2024-02-20 22:14:02,15.08850112,0.0001527,53.2173,310.9717,88.0275,272.0892,0.00029141,4.354e-05,0.0,0 STARLINK-4128,1 53249U 22086H   24051.92641884  .00004354  00000-0  29141-3 0  9991,2 53249  53.2173 310.9717 0001527  88.0275 272.0892 15.08850112 88196,6917.849,95.437,540.771,538.658,0.0
53249.0,STARLINK-4128,PAYLOAD,2024-02-20 23:49:25,15.08853796,0.0001536,53.2179,310.6739,87.4039,272.7129,0.00038364,5.825e-05,0.0,0 STARLINK-4128,1 53249U 22086H   24051.99265864  .00005825  00000-0  38364-3 0  9999,2 53249  53.2179 310.6739 0001536  87.4039 272.7129 15.08853796 88005,6917.838,95.437,540.766,538.641,0.0
53249.0,STARLINK-4128,PAYLOAD,2024-02-21 20:29:26,15.08846224,0.0001639,53.2185,306.8083,107.7134,252.4037,0.00024957,3.687e-05,0.0,0 STARLINK-4128,1 53249U 22086H   24052.85378058  .00003687  00000-0  24957-3 0  9992,2 53249  53.2185 306.8083 0001639 107.7134 252.4037 15.08846224 88132,6917.861,95.437,540.86,538.593,0.0
53249.0,STARLINK-4128,PAYLOAD,2024-02-21 22:04:49,15.08847555,0.0001446,53.2172,306.5111,100.4051,259.7104,0.00029188,4.361e-05,0.0,0 STARLINK-4128,1 53249U 22086H   24052.92002045  .00004361  00000-0  29188-3 0  9991,2 53249  53.2172 306.5111 0001446 100.4051 259.7104 15.08847555 88347,6917.857,95.437,540.723,538.722,0.0
53249.0,STARLINK-4128,PAYLOAD,2024-02-22 02:50:59,15.08848162,0.000139,53.2172,305.62,98.6128,261.5021,0.00016197,2.291e-05,0.0,0 STARLINK-4128,1 53249U 22086H   24053.11873862  .00002291  00000-0  16197-3 0  9992,2 53249  53.2172 305.6200 0001390  98.6128 261.5021 15.08848162 88374,6917.855,95.437,540.682,538.759,0.0
53249.0,STARLINK-4128,PAYLOAD,2024-02-22 21:55:36,15.08841114,0.0001411,53.2168,302.049,99.8556,260.2595,-9.6007e-06,-4.41e-06,0.0,0 STARLINK-4128,1 53249U 22086H   24053.91361995 -.00000441  00000-0 -96007-5 0  9996,2 53249  53.2168 302.0490 0001411  99.8556 260.2595 15.08841114 88498,6917.877,95.437,540.718,538.766,0.0
53249.0,STARLINK-4128,PAYLOAD,2024-02-23 09:03:18,15.08841676,0.0001394,53.2167,299.9682,88.7149,271.4003,5.7282e-05,6.24e-06,0.0,0 STARLINK-4128,1 53249U 22086H   24054.37730038  .00000624  00000-0  57282-4 0  9997,2 53249  53.2167 299.9682 0001394  88.7149 271.4003 15.08841676 88568,6917.875,95.437,540.705,538.776,0.0
53249.0,STARLINK-4128,PAYLOAD,2024-02-23 21:46:23,15.08838556,0.0001442,53.217,297.5894,96.213,263.9026,7.0315e-05,8.31e-06,0.0,0 STARLINK-4128,1 53249U 22086H   24054.90722200  .00000831  00000-0  70315-4 0  9990,2 53249  53.2170 297.5894 0001442  96.2130 263.9026 15.08838556 88642,6917.885,95.438,540.747,538.752,0.0
53249.0,STARLINK-4128,PAYLOAD,2024-02-24 02:32:33,15.08845196,0.0001414,53.2168,296.7004,105.093,255.0219,0.00013781,1.906e-05,0.0,0 STARLINK-4128,1 53249U 22086H   24055.10593841  .00001906  00000-0  13781-3 0  9997,2 53249  53.2168 296.7004 0001414 105.0930 255.0219 15.08845196 88474,6917.865,95.437,540.708,538.751,0.0
53249.0,STARLINK-4128,PAYLOAD,2024-02-24 08:54:05,15.08843475,0.0001295,53.2163,295.5103,95.0899,265.0241,0.00010431,1.373e-05,0.0,0 STARLINK-4128,1 53249U 22086H   24055.37089981  .00001373  00000-0  10431-3 0  9998,2 53249  53.2163 295.5103 0001295  95.0899 265.0241 15.08843475 88716,6917.87,95.437,540.631,538.839,0.0
53249.0,STARLINK-4128,PAYLOAD,2024-02-25 00:47:57,15.08840597,0.0001321,53.2164,292.5367,98.2943,261.8199,2.991e-05,1.88e-06,0.0,0 STARLINK-4128,1 53249U 22086H   24056.03330170  .00000188  00000-0  29910-4 0  9997,2 53249  53.2164 292.5367 0001321  98.2943 261.8199 15.08840597 88618,6917.879,95.438,540.657,538.83,0.0
53249.0,STARLINK-4128,PAYLOAD,2024-02-25 19:52:34,15.08857405,0.0001386,53.2163,288.968,86.2993,273.8158,-0.00032844,-5.514e-05,0.0,0 STARLINK-4128,1 53249U 22086H   24056.82817153 -.00005514  00000-0 -32844-3 0  9994,2 53249  53.2163 288.9680 0001386  86.2993 273.8158 15.08857405 88734,6917.827,95.436,540.651,538.733,0.0
53249.0,STARLINK-4128,PAYLOAD,2024-02-25 23:03:20,15.08847556,0.000128,53.2162,288.3732,88.7135,271.4004,0.00012045,1.63e-05,0.0,0 STARLINK-4128,1 53249U 22086H   24056.96065871  .00001630  00000-0  12045-3 0  9995,2 53249  53.2162 288.3732 0001280  88.7135 271.4004 15.08847556 88957,6917.857,95.437,540.608,538.837,0.0
53249.0,STARLINK-4128,PAYLOAD,2024-02-26 14:57:13,15.08833434,0.0001194,53.2162,285.4005,80.9387,279.174,5.6244e-06,-1.98e-06,0.0,0 STARLINK-4128,1 53249U 22086H   24057.62306749 -.00000198  00000-0  56244-5 0  9991,2 53249  53.2162 285.4005 0001194  80.9387 279.1740 15.08833434 89059,6917.9,95.438,540.591,538.939,0.0
